NORAD_CAT_ID,OBJECT_NAME,OBJECT_TYPE,EPOCH,MEAN_MOTION,ECCENTRICITY,INCLINATION,RA_OF_ASC_NODE,ARG_OF_PERICENTER,MEAN_ANOMALY,BSTAR,MEAN_MOTION_DOT,MEAN_MOTION_DDOT,TLE_LINE0,TLE_LINE1,TLE_LINE2,SEMIMAJOR_AXIS,PERIOD,APOGEE,PERIGEE,DECAYED
53901.0,STARLINK-5024,PAYLOAD,2022-11-03 04:00:00,15.73199116,0.0002106,53.2172,58.9797,36.9601,181.8499,6.7554e-05,8.87e-05,0.0,0 STARLINK-5024,1 53901U 22119R   22307.16667824  .00008870  00000-0  67554-4 0  9991,2 53901  53.2172  58.9797 0002106  36.9601 181.8499 15.73199116  6604,6727.898,91.533,351.18,348.346,0.0
53901.0,STARLINK-5024,PAYLOAD,2022-11-03 14:00:01,15.73206598,0.0002013,53.2166,56.9391,17.4179,42.5691,0.00019271,0.00026519,0.0,0 STARLINK-5024,1 53901U 22119R   22307.58334491  .00026519  00000-0  19271-3 0  9990,2 53901  53.2166  56.9391 0002013  17.4179  42.5691 15.73206598  1308,6727.876,91.533,351.096,348.38699999999994,0.0
53901.0,STARLINK-5024,PAYLOAD,2022-11-03 22:00:00,15.73441711,0.0002104,53.2166,55.2789,18.8902,130.0176,-0.0056104,-0.00730783,0.0,0 STARLINK-5024,1 53901U 22119R   22307.91667824 -.00730783  00000-0 -56104-2 0  9998,2 53901  53.2166  55.2789 0002104  18.8902 130.0176 15.73441711  6721,6727.206,91.519,350.487,347.656,0.0
53901.0,STARLINK-5024,PAYLOAD,2022-11-04 14:00:01,15.72307834,0.0001673,53.2172,51.97,29.5952,296.4966,-0.0093347,-0.01126139,0.0,0 STARLINK-5024,1 53901U 22119R   22308.58334491 -.01126139  00000-0 -93347-2 0  9998,2 53901  53.2172  51.9700 0001673  29.5952 296.4966 15.72307834  6829,6730.44,91.585,353.431,351.17900000000014,0.0
53901.0,STARLINK-5024,PAYLOAD,2022-11-04 22:00:01,15.71493484,0.0006954,53.2172,50.3229,270.8843,142.6287,-0.0096362,-0.01126315,0.0,0 STARLINK-5024,1 53901U 22119R   22308.91668981 -.01126315  00000-0 -96362-2 0  9995,2 53901  53.2172  50.3229 0006954 270.8843 142.6287 15.71493484  1307,6732.765,91.633,359.31199999999984,349.9480000000001,0.0
53901.0,STARLINK-5024,PAYLOAD,2022-11-05 12:00:00,15.70094149,0.0002516,53.2174,47.4502,298.6254,175.3266,-0.010589,-0.01178663,0.0,0 STARLINK-5024,1 53901U 22119R   22309.50001157 -.01178663  00000-0 -10589-1 0  9996,2 53901  53.2174  47.4502 0002516 298.6254 175.3266 15.70094149  6976,6736.765,91.714,360.325,356.935,0.0
53901.0,STARLINK-5024,PAYLOAD,2022-11-05 14:00:01,15.69864226,0.000184,53.2175,47.0395,309.7247,275.5626,-0.010294,-0.01120329,0.0,0 STARLINK-5024,1 53901U 22119R   22309.58335648 -.01120329  00000-0 -10294-1 0  9998,2 53901  53.2175  47.0395 0001840 309.7247 275.5626 15.69864226  1302,6737.422,91.728,360.527,358.048,0.0
53901.0,STARLINK-5024,PAYLOAD,2022-11-05 22:00:01,15.69023423,0.0001178,53.217,45.3981,26.8568,282.8654,-0.010278,-0.01083886,0.0,0 STARLINK-5024,1 53901U 22119R   22309.91668981 -.01083886  00000-0 -10278-1 0  9992,2 53901  53.2170  45.3981 0001178  26.8568 282.8654 15.69023423  1304,6739.829000000002,91.777,362.48800000000006,360.9,0.0
53901.0,STARLINK-5024,PAYLOAD,2022-11-06 06:00:00,15.68235738,0.0001406,53.2175,43.7559,38.4633,354.62699999999984,-0.010995,-0.01136462,0.0,0 STARLINK-5024,1 53901U 22119R   22310.25001157 -.01136462  00000-0 -10995-1 0  9992,2 53901  53.2175  43.7559 0001406  38.4633 354.6270 15.68235738  7095,6742.0859999999975,91.823,364.899,363.003,0.0
53901.0,STARLINK-5024,PAYLOAD,2022-11-06 14:00:01,15.67428149,0.0001301,53.2174,42.1231,55.602,59.9488,-0.011456,-0.0114453,0.0,0 STARLINK-5024,1 53901U 22119R   22310.58334491 -.01144530  00000-0 -11456-1 0  9996,2 53901  53.2174  42.1231 0001301  55.6020  59.9488 15.67428149  1302,6744.401,91.87,367.144,365.389,0.0
53901.0,STARLINK-5024,PAYLOAD,2022-11-06 22:00:00,15.66635457,0.0001463,53.2169,40.4876,48.1575,148.8717,-0.012161,-0.01173253,0.0,0 STARLINK-5024,1 53901U 22119R   22310.91667824 -.01173253  00000-0 -12161-1 0  9990,2 53901  53.2169  40.4876 0001463  48.1575 148.8717 15.66635457  7190,6746.676,91.917,369.528,367.554,0.0
53901.0,STARLINK-5024,PAYLOAD,2022-11-07 22:00:00,15.64168586,0.000121,53.2175,35.5945,54.6903,20.9488,-0.012983,-0.01137566,0.0,0 STARLINK-5024,1 53901U 22119R   22311.91667824 -.01137566  00000-0 -12983-1 0  9990,2 53901  53.2175  35.5945 0001210  54.6903  20.9488 15.64168586  1300,6753.768,92.062,376.45,374.816,0.0
53901.0,STARLINK-5024,PAYLOAD,2022-11-08 06:00:00,15.63362965,0.0001598,53.2174,33.968,39.9183,113.2919,-0.013511,-0.01145811,0.0,0 STARLINK-5024,1 53901U 22119R   22312.25001157 -.01145811  00000-0 -13511-1 0  9999,2 53901  53.2174  33.9680 0001598  39.9183 113.2919 15.63362965  7400,6756.0880000000025,92.109,379.033,376.87300000000016,0.0
53901.0,STARLINK-5024,PAYLOAD,2022-11-08 14:00:01,15.62548728,0.0001443,53.2176,32.3457,49.2038,180.6049,-0.013965,-0.01146689,0.0,0 STARLINK-5024,1 53901U 22119R   22312.58334491 -.01146689  00000-0 -13965-1 0  9992,2 53901  53.2176  32.3457 0001443  49.2038 180.6049 15.62548728  1306,6758.435,92.157,381.275,379.325,0.0
53901.0,STARLINK-5024,PAYLOAD,2022-11-08 22:00:00,15.61730767,0.0001396999999999,53.2172,30.7212,42.73,262.7032,-0.014361,-0.01142407,0.0,0 STARLINK-5024,1 53901U 22119R   22312.91667824 -.01142407  00000-0 -14361-1 0  9993,2 53901  53.2172  30.7212 0001397  42.7300 262.7032 15.61730767  1300,6760.794,92.205,383.604,381.715,0.0
53901.0,STARLINK-5024,PAYLOAD,2022-11-09 04:00:00,15.61136067,0.0001575999999999,53.2167,29.5051,38.7969,232.6981,-0.014892,-0.01156109,0.0,0 STARLINK-5024,1 53901U 22119R   22313.16667824 -.01156109  00000-0 -14892-1 0  9994,2 53901  53.2167  29.5051 0001576  38.7969 232.6981 15.61136067  7540,6762.511,92.241,385.442,383.311,0.0
53901.0,STARLINK-5024,PAYLOAD,2022-11-09 14:00:01,15.600487300000005,0.0001628,53.2174,27.4839,41.5926,52.1737,-0.014224,-0.01067385,0.0,0 STARLINK-5024,1 53901U 22119R   22313.58334491 -.01067385  00000-0 -14224-1 0  9997,2 53901  53.2174  27.4839 0001628  41.5926  52.1737 15.60048730  1302,6765.653,92.305,388.62,386.417,0.0
53901.0,STARLINK-5024,PAYLOAD,2022-11-09 22:00:01,15.59285876,0.0001656,53.2174,25.8648,41.0738,125.4209,-0.015678,-0.01135411,0.0,0 STARLINK-5024,1 53901U 22119R   22313.91668981 -.01135411  00000-0 -15678-1 0  9998,2 53901  53.2174  25.8648 0001656  41.0738 125.4209 15.59285876  1309,6767.86,92.35,390.845,388.604,0.0
53901.0,STARLINK-5024,PAYLOAD,2022-11-10 06:00:00,15.58491665,0.0001791,53.2171,24.2504,37.2317,200.8968,-0.0165419999999999,-0.01159636,0.0,0 STARLINK-5024,1 53901U 22119R   22314.25001157 -.01159636  00000-0 -16542-1 0  9998,2 53901  53.2171  24.2504 0001791  37.2317 200.8968 15.58491665  7715,6770.159000000002,92.397,393.236,390.811,0.0
53901.0,STARLINK-5024,PAYLOAD,2022-11-10 14:00:01,15.57664702,0.0001641,53.2175,22.6399,36.8961,271.9695,-0.016804,-0.01143277,0.0,0 STARLINK-5024,1 53901U 22119R   22314.58334491 -.01143277  00000-0 -16804-1 0  9999,2 53901  53.2175  22.6399 0001641  36.8961 271.9695 15.57664702  1305,6772.555,92.446,395.531,393.3080000000001,0.0
53901.0,STARLINK-5024,PAYLOAD,2022-11-10 22:00:00,15.56842728,0.0001720999999999,53.2175,21.0266,24.8947,353.7306,-0.017155,-0.01132683,0.0,0 STARLINK-5024,1 53901U 22119R   22314.91667824 -.01132683  00000-0 -17155-1 0  9994,2 53901  53.2175  21.0266 0001721  24.8947 353.7306 15.56842728  1304,6774.938,92.495,397.969,395.637,0.0
53901.0,STARLINK-5024,PAYLOAD,2022-11-11 06:00:00,15.56028771,0.0001856,53.2178,19.4171,29.6014,57.7994,-0.017655,-0.01130923,0.0,0 STARLINK-5024,1 53901U 22119R   22315.25001157 -.01130923  00000-0 -17655-1 0  9993,2 53901  53.2178  19.4171 0001856  29.6014  57.7994 15.56028771  7876,6777.301,92.543,400.424,397.908,0.0
53901.0,STARLINK-5024,PAYLOAD,2022-11-11 14:00:01,15.55258463,0.0001339,53.2174,17.8134,22.6256,132.5501,-0.019206,-0.01188813,0.0,0 STARLINK-5024,1 53901U 22119R   22315.58334491 -.01188813  00000-0 -19206-1 0  9994,2 53901  53.2174  17.8134 0001339  22.6256 132.5501 15.55258463  1300,6779.538000000001,92.589,402.311,400.496,0.0
53901.0,STARLINK-5024,PAYLOAD,2022-11-11 22:00:00,15.5444814,0.0001541,53.2173,16.2069,49.7301,172.2649,-0.019867,-0.0119298999999999,0.0,0 STARLINK-5024,1 53901U 22119R   22315.91667824 -.01192990  00000-0 -19867-1 0  9994,2 53901  53.2173  16.2069 0001541  49.7301 172.2649 15.54448140  1301,6781.894,92.637,404.804,402.714,0.0
53901.0,STARLINK-5024,PAYLOAD,2022-11-12 06:00:00,15.53588774,0.0001295,53.217,14.6032,56.9445,230.915,-0.019334,-0.01131333,0.0,0 STARLINK-5024,1 53901U 22119R   22316.25001157 -.01131333  00000-0 -19334-1 0  9996,2 53901  53.2170  14.6032 0001295  56.9445 230.9150 15.53588774  8027,6784.395,92.689,407.139,405.381,0.0
53901.0,STARLINK-5024,PAYLOAD,2022-11-12 14:00:01,15.52784495,0.0001249,53.2171,13.0044,51.6414,301.0767,-0.020165,-0.01144364,0.0,0 STARLINK-5024,1 53901U 22119R   22316.58334491 -.01144364  00000-0 -20165-1 0  9994,2 53901  53.2171  13.0044 0001249  51.6414 301.0767 15.52784495  1306,6786.736999999999,92.737,409.45,407.755,0.0
53901.0,STARLINK-5024,PAYLOAD,2022-11-12 22:00:00,15.51973107,0.0001535,53.2173,11.4036,41.6611,14.9436,-0.020829,-0.01147482,0.0,0 STARLINK-5024,1 53901U 22119R   22316.91667824 -.01147482  00000-0 -20829-1 0  9991,2 53901  53.2173  11.4036 0001535  41.6611  14.9436 15.51973107  8137,6789.103,92.785,412.01,409.926,0.0
53901.0,STARLINK-5024,PAYLOAD,2022-11-13 14:00:01,15.50227246,0.0001568,53.2173,8.2131,55.7654,125.6933,-0.0082612,-0.0044887,0.0,0 STARLINK-5024,1 53901U 22119R   22317.58334491 -.00448870  00000-0 -82612-2 0  9999,2 53901  53.2173   8.2131 0001568  55.7654 125.6933 15.50227246  8234,6794.199000000001,92.89,417.129,414.999,0.0
53901.0,STARLINK-5024,PAYLOAD,2022-11-13 14:46:48,15.52632773,0.0001311,53.2163,8.0656,349.0289,11.0693,-0.005314,-0.00320032,0.0,0 STARLINK-5024,1 53901U 22119R   22317.61584302 -.00320032  00000-0 -53140-2 0  9994,2 53901  53.2163   8.0656 0001311 349.0289  11.0693 15.52632773  8241,6787.18,92.746,409.934,408.155,0.0
